[{"OBJECT_NAME":"LEMUR-2-ARIANNA","OBJECT_ID":"2025-009CU","EPOCH":"2026-04-05T19:17:54.271104","MEAN_MOTION":15.01411713,"ECCENTRICITY":0.0003887,"INCLINATION":97.6914,"RA_OF_ASC_NODE":177.8586,"ARG_OF_PERICENTER":98.8779,"MEAN_ANOMALY":261.2885,"EPHEMERIS_TYPE":0,"CLASSIFICATION_TYPE":"U","NORAD_CAT_ID":62699,"ELEMENT_SET_NO":999,"REV_AT_EPOCH":6669,"BSTAR":0.00080646,"MEAN_MOTION_DOT":0.00010357,"MEAN_MOTION_DDOT":0},{"OBJECT_NAME":"LEMUR-2-ALISIA","OBJECT_ID":"2025-009DB","EPOCH":"2026-04-05T17:30:41.558688","MEAN_MOTION":15.01670286,"ECCENTRICITY":0.0005245,"INCLINATION":97.6928,"RA_OF_ASC_NODE":178.4598,"ARG_OF_PERICENTER":101.6193,"MEAN_ANOMALY":258.562,"EPHEMERIS_TYPE":0,"CLASSIFICATION_TYPE":"U","NORAD_CAT_ID":62706,"ELEMENT_SET_NO":999,"REV_AT_EPOCH":8928,"BSTAR":0.00081815,"MEAN_MOTION_DOT":0.00010581,"MEAN_MOTION_DDOT":0},{"OBJECT_NAME":"LEMUR-2-ROUNDTRIPPER","OBJECT_ID":"2025-009DG","EPOCH":"2026-04-05T19:15:52.565472","MEAN_MOTION":15.02664349,"ECCENTRICITY":0.0004664,"INCLINATION":97.7241,"RA_OF_ASC_NODE":178.6586,"ARG_OF_PERICENTER":47.7126,"MEAN_ANOMALY":312.4494,"EPHEMERIS_TYPE":0,"CLASSIFICATION_TYPE":"U","NORAD_CAT_ID":62711,"ELEMENT_SET_NO":999,"REV_AT_EPOCH":6675,"BSTAR":0.00087006,"MEAN_MOTION_DOT":0.00011556,"MEAN_MOTION_DDOT":0},{"OBJECT_NAME":"LEMUR-2-MYNAMEISJEFF","OBJECT_ID":"2025-009DH","EPOCH":"2026-04-05T19:13:37.362432","MEAN_MOTION":15.0266455,"ECCENTRICITY":0.0004086,"INCLINATION":97.7282,"RA_OF_ASC_NODE":178.9947,"ARG_OF_PERICENTER":78.8592,"MEAN_ANOMALY":281.3092,"EPHEMERIS_TYPE":0,"CLASSIFICATION_TYPE":"U","NORAD_CAT_ID":62712,"ELEMENT_SET_NO":999,"REV_AT_EPOCH":6675,"BSTAR":0.00083814,"MEAN_MOTION_DOT":0.00011129,"MEAN_MOTION_DDOT":0},{"OBJECT_NAME":"LEMUR-2-LEIA-PHILIP","OBJECT_ID":"2025-052AN","EPOCH":"2026-04-05T16:32:56.964480","MEAN_MOTION":14.97007227,"ECCENTRICITY":0.0004973,"INCLINATION":97.6902,"RA_OF_ASC_NODE":348.8433,"ARG_OF_PERICENTER":105.6651,"MEAN_ANOMALY":254.512,"EPHEMERIS_TYPE":0,"CLASSIFICATION_TYPE":"U","NORAD_CAT_ID":63246,"ELEMENT_SET_NO":999,"REV_AT_EPOCH":5782,"BSTAR":0.00063008,"MEAN_MOTION_DOT":7.199e-5,"MEAN_MOTION_DDOT":0},{"OBJECT_NAME":"LEMUR-2-LIA-MARTIN","OBJECT_ID":"2025-052AQ","EPOCH":"2026-04-05T16:59:27.655008","MEAN_MOTION":14.97167266,"ECCENTRICITY":0.0004865,"INCLINATION":97.6962,"RA_OF_ASC_NODE":349.2505,"ARG_OF_PERICENTER":79.9538,"MEAN_ANOMALY":280.2233,"EPHEMERIS_TYPE":0,"CLASSIFICATION_TYPE":"U","NORAD_CAT_ID":63248,"ELEMENT_SET_NO":999,"REV_AT_EPOCH":5783,"BSTAR":0.00065762,"MEAN_MOTION_DOT":7.548e-5,"MEAN_MOTION_DDOT":0},{"OBJECT_NAME":"LEMUR-2-DELOITTE-1","OBJECT_ID":"2025-052BB","EPOCH":"2026-04-05T14:39:27.421056","MEAN_MOTION":14.97085982,"ECCENTRICITY":0.0002037,"INCLINATION":97.6996,"RA_OF_ASC_NODE":349.4761,"ARG_OF_PERICENTER":38.5088,"MEAN_ANOMALY":321.6279,"EPHEMERIS_TYPE":0,"CLASSIFICATION_TYPE":"U","NORAD_CAT_ID":63259,"ELEMENT_SET_NO":999,"REV_AT_EPOCH":5783,"BSTAR":0.00044513,"MEAN_MOTION_DOT":5.077e-5,"MEAN_MOTION_DDOT":0},{"OBJECT_NAME":"LEMUR-2-EMERSONROSE","OBJECT_ID":"2025-052BD","EPOCH":"2026-04-05T15:46:47.123040","MEAN_MOTION":14.98563957,"ECCENTRICITY":0.0001419,"INCLINATION":97.6986,"RA_OF_ASC_NODE":349.9322,"ARG_OF_PERICENTER":60.3842,"MEAN_ANOMALY":299.7522,"EPHEMERIS_TYPE":0,"CLASSIFICATION_TYPE":"U","NORAD_CAT_ID":63261,"ELEMENT_SET_NO":999,"REV_AT_EPOCH":5787,"BSTAR":0.00055947,"MEAN_MOTION_DOT":6.647e-5,"MEAN_MOTION_DDOT":0},{"OBJECT_NAME":"LEMUR-2-MARACHE-FRAN","OBJECT_ID":"2025-052BE","EPOCH":"2026-04-05T14:35:54.933216","MEAN_MOTION":14.9933488,"ECCENTRICITY":0.0001138,"INCLINATION":97.6982,"RA_OF_ASC_NODE":350.11,"ARG_OF_PERICENTER":331.184,"MEAN_ANOMALY":28.9319,"EPHEMERIS_TYPE":0,"CLASSIFICATION_TYPE":"U","NORAD_CAT_ID":63262,"ELEMENT_SET_NO":999,"REV_AT_EPOCH":5788,"BSTAR":0.00059828,"MEAN_MOTION_DOT":7.257e-5,"MEAN_MOTION_DDOT":0},{"OBJECT_NAME":"LEMUR-2-THEFALCONER","OBJECT_ID":"2025-052BG","EPOCH":"2026-04-05T16:39:19.270656","MEAN_MOTION":14.96862253,"ECCENTRICITY":9.75e-5,"INCLINATION":97.6929,"RA_OF_ASC_NODE":349.2548,"ARG_OF_PERICENTER":208.6234,"MEAN_ANOMALY":151.4934,"EPHEMERIS_TYPE":0,"CLASSIFICATION_TYPE":"U","NORAD_CAT_ID":63264,"ELEMENT_SET_NO":999,"REV_AT_EPOCH":5784,"BSTAR":0.00060503,"MEAN_MOTION_DOT":6.883e-5,"MEAN_MOTION_DDOT":0},{"OBJECT_NAME":"LEMUR-2-UNTITLED-SC","OBJECT_ID":"2025-061A","EPOCH":"2026-04-05T21:05:15.283104","MEAN_MOTION":15.129661,"ECCENTRICITY":0.0019824,"INCLINATION":97.5596,"RA_OF_ASC_NODE":71.8209,"ARG_OF_PERICENTER":149.9223,"MEAN_ANOMALY":210.3151,"EPHEMERIS_TYPE":0,"CLASSIFICATION_TYPE":"U","NORAD_CAT_ID":63351,"ELEMENT_SET_NO":999,"REV_AT_EPOCH":5665,"BSTAR":0.00032657,"MEAN_MOTION_DOT":5.721e-5,"MEAN_MOTION_DDOT":0},{"OBJECT_NAME":"LEMUR-2-ESPERANZA","OBJECT_ID":"2025-061B","EPOCH":"2026-04-05T20:38:31.375104","MEAN_MOTION":15.13048773,"ECCENTRICITY":0.0019481,"INCLINATION":97.5606,"RA_OF_ASC_NODE":71.8795,"ARG_OF_PERICENTER":148.8859,"MEAN_ANOMALY":211.3529,"EPHEMERIS_TYPE":0,"CLASSIFICATION_TYPE":"U","NORAD_CAT_ID":63352,"ELEMENT_SET_NO":999,"REV_AT_EPOCH":5665,"BSTAR":0.00028594,"MEAN_MOTION_DOT":5.011e-5,"MEAN_MOTION_DDOT":0},{"OBJECT_NAME":"LEMUR-2-KREMPEL-BRO2","OBJECT_ID":"2025-061C","EPOCH":"2026-04-05T15:26:00.307104","MEAN_MOTION":15.13470739,"ECCENTRICITY":0.0020629,"INCLINATION":97.565,"RA_OF_ASC_NODE":72.1054,"ARG_OF_PERICENTER":142.8346,"MEAN_ANOMALY":217.4318,"EPHEMERIS_TYPE":0,"CLASSIFICATION_TYPE":"U","NORAD_CAT_ID":63353,"ELEMENT_SET_NO":999,"REV_AT_EPOCH":5663,"BSTAR":0.00027021,"MEAN_MOTION_DOT":4.791e-5,"MEAN_MOTION_DDOT":0},{"OBJECT_NAME":"LEMUR-2-THERMORAPTOR","OBJECT_ID":"2025-061D","EPOCH":"2026-04-05T11:54:46.653120","MEAN_MOTION":15.13533806,"ECCENTRICITY":0.00202701,"INCLINATION":97.5653,"RA_OF_ASC_NODE":72.0222,"ARG_OF_PERICENTER":142.5625,"MEAN_ANOMALY":217.7023,"EPHEMERIS_TYPE":0,"CLASSIFICATION_TYPE":"U","NORAD_CAT_ID":63354,"ELEMENT_SET_NO":999,"REV_AT_EPOCH":5661,"BSTAR":0.00030234283,"MEAN_MOTION_DOT":5.378e-5,"MEAN_MOTION_DDOT":0},{"OBJECT_NAME":"LEMUR-2-NEUROSPICY","OBJECT_ID":"2025-061E","EPOCH":"2026-04-05T20:52:59.530944","MEAN_MOTION":15.13653823,"ECCENTRICITY":0.0018041,"INCLINATION":97.5585,"RA_OF_ASC_NODE":72.0759,"ARG_OF_PERICENTER":144.3098,"MEAN_ANOMALY":215.9343,"EPHEMERIS_TYPE":0,"CLASSIFICATION_TYPE":"U","NORAD_CAT_ID":63355,"ELEMENT_SET_NO":999,"REV_AT_EPOCH":5667,"BSTAR":0.00031549,"MEAN_MOTION_DOT":5.628e-5,"MEAN_MOTION_DDOT":0},{"OBJECT_NAME":"LEMUR-2-TILLINFINITY","OBJECT_ID":"2025-061F","EPOCH":"2026-04-05T20:48:54.236160","MEAN_MOTION":15.1423303,"ECCENTRICITY":0.0019568,"INCLINATION":97.5572,"RA_OF_ASC_NODE":72.313,"ARG_OF_PERICENTER":133.4669,"MEAN_ANOMALY":226.8194,"EPHEMERIS_TYPE":0,"CLASSIFICATION_TYPE":"U","NORAD_CAT_ID":63356,"ELEMENT_SET_NO":999,"REV_AT_EPOCH":5669,"BSTAR":0.0003077,"MEAN_MOTION_DOT":5.582e-5,"MEAN_MOTION_DDOT":0}]
