LEMUR-2-ARIANNA         
1 62699U 25009CU  26095.80410036  .00010357  00000+0  80646-3 0  9994
2 62699  97.6914 177.8586 0003887  98.8779 261.2885 15.01411713 66699
LEMUR-2-ALISIA          
1 62706U 25009DB  26095.72964767  .00010581  00000+0  81815-3 0  9997
2 62706  97.6928 178.4598 0005245 101.6193 258.5620 15.01670286 89284
LEMUR-2-ROUNDTRIPPER    
1 62711U 25009DG  26095.80269173  .00011556  00000+0  87006-3 0  9992
2 62711  97.7241 178.6586 0004664  47.7126 312.4494 15.02664349 66758
LEMUR-2-MYNAMEISJEFF    
1 62712U 25009DH  26095.80112688  .00011129  00000+0  83814-3 0  9990
2 62712  97.7282 178.9947 0004086  78.8592 281.3092 15.02664550 66750
LEMUR-2-LEIA-PHILIP     
1 63246U 25052AN  26095.68954820  .00007199  00000+0  63008-3 0  9994
2 63246  97.6902 348.8433 0004973 105.6651 254.5120 14.97007227 57826
LEMUR-2-LIA-MARTIN      
1 63248U 25052AQ  26095.70795897  .00007548  00000+0  65762-3 0  9993
2 63248  97.6962 349.2505 0004865  79.9538 280.2233 14.97167266 57838
LEMUR-2-DELOITTE-1      
1 63259U 25052BB  26095.61073404  .00005077  00000+0  44513-3 0  9994
2 63259  97.6996 349.4761 0002037  38.5088 321.6279 14.97085982 57837
LEMUR-2-EMERSONROSE     
1 63261U 25052BD  26095.65748985  .00006647  00000+0  55947-3 0  9991
2 63261  97.6986 349.9322 0001419  60.3842 299.7522 14.98563957 57875
LEMUR-2-MARACHE-FRAN    
1 63262U 25052BE  26095.60827469  .00007257  00000+0  59828-3 0  9992
2 63262  97.6982 350.1100 0001138 331.1840  28.9319 14.99334880 57884
LEMUR-2-THEFALCONER     
1 63264U 25052BG  26095.69397304  .00006883  00000+0  60503-3 0  9999
2 63264  97.6929 349.2548 0000975 208.6234 151.4934 14.96862253 57843
LEMUR-2-UNTITLED-SC     
1 63351U 25061A   26095.87864911  .00005721  00000+0  32657-3 0  9998
2 63351  97.5596  71.8209 0019824 149.9223 210.3151 15.12966100 56658
LEMUR-2-ESPERANZA       
1 63352U 25061B   26095.86008536  .00005011  00000+0  28594-3 0  9998
2 63352  97.5606  71.8795 0019481 148.8859 211.3529 15.13048773 56651
LEMUR-2-KREMPEL-BRO2    
1 63353U 25061C   26095.64305911  .00004791  00000+0  27021-3 0  9990
2 63353  97.5650  72.1054 0020629 142.8346 217.4318 15.13470739 56636
LEMUR-2-THERMORAPTOR    
1 63354U 25061D   26095.49637330  .00005378  00000+0  30234-3 0  9999
2 63354  97.5653  72.0222 0020270 142.5625 217.7023 15.13533806 56614
LEMUR-2-NEUROSPICY      
1 63355U 25061E   26095.87013346  .00005628  00000+0  31549-3 0  9995
2 63355  97.5585  72.0759 0018041 144.3098 215.9343 15.13653823 56674
LEMUR-2-TILLINFINITY    
1 63356U 25061F   26095.86729440  .00005582  00000+0  30770-3 0  9998
2 63356  97.5572  72.3130 0019568 133.4669 226.8194 15.14233030 56697
